ONEWEB-0120             
1 47266U 20100J   26143.52813553 -.00000369  00000+0 -10607-2 0  9991
2 47266  87.8951 355.5765 0001631  89.2124 270.9192 13.12442096261492
ONEWEB-0121             
1 47267U 20100K   26143.51613431  .00000079  00000+0  18390-3 0  9998
2 47267  87.8961 355.5624 0002001  79.1849 280.9504 13.12440286261400
ONEWEB-0122             
1 47268U 20100L   26143.51020663  .00000281  00000+0  74662-3 0  9997
2 47268  87.8963 355.5677 0001628  84.6209 275.5105 13.12440620261315
ONEWEB-0123             
1 47269U 20100M   26143.50597941  .00000368  00000+0  98634-3 0  9996
2 47269  87.8951 355.5787 0001831  88.5277 271.6061 13.12441240261451
ONEWEB-0124             
1 47270U 20100N   26143.49581475  .00000335  00000+0  89645-3 0  9997
2 47270  87.8948 355.5841 0001883  84.0585 276.0758 13.12442591261339
ONEWEB-0125             
1 47271U 20100P   26143.55002228 -.00000268  00000+0 -77924-3 0  9993
2 47271  87.8961 355.5536 0002120  86.7333 273.4038 13.12443754261403
ONEWEB-0126             
1 47272U 20100Q   26143.49425309  .00000336  00000+0  89786-3 0  9999
2 47272  87.8951 355.5827 0001730  86.1180 274.0146 13.12444137261465
ONEWEB-0127             
1 47273U 20100R   26143.53645818 -.00000433  00000+0 -12399-2 0  9999
2 47273  87.8951 355.5739 0001678  87.9840 272.1481 13.12441817261497
ONEWEB-0128             
1 47274U 20100S   26143.48223669 -.00000234  00000+0 -68716-3 0  9994
2 47274  87.8949 355.5984 0001758  75.5624 284.5700 13.12443735261503
ONEWEB-0129             
1 47275U 20100T   26143.53814192 -.00000402  00000+0 -11539-2 0  9995
2 47275  87.8960 355.5585 0001117 123.8034 236.3201 13.12440946261440
ONEWEB-0130             
1 47276U 20100U   26143.48903095  .00000236  00000+0  61986-3 0  9996
2 47276  87.8961 355.5633 0001699  85.0390 275.0932 13.12442863261402
ONEWEB-0131             
1 47277U 20100V   26143.33316433  .00000204  00000+0  53135-3 0  9997
2 47277  87.8949 355.6152 0001783  84.9746 275.1586 13.12442958261426
ONEWEB-0132             
1 47278U 20100W   26143.51444762  .00000200  00000+0  52068-3 0  9995
2 47278  87.8952 355.5805 0001790  83.5511 276.5821 13.12441048261345
ONEWEB-0133             
1 47279U 20100X   26143.53124470 -.00000325  00000+0 -93758-3 0  9990
2 47279  87.8965 355.5500 0001753  79.9779 280.1547 13.12441070261505
ONEWEB-0134             
1 47280U 20100Y   26143.50089455  .00000371  00000+0  99706-3 0  9990
2 47280  87.8963 355.5534 0001512  81.5126 278.6174 13.12442121261472
ONEWEB-0135             
1 47281U 20100Z   26143.54832236 -.00000274  00000+0 -79608-3 0  9991
2 47281  87.8952 355.5701 0001574  78.2061 281.9244 13.12443066261504
