[{"OBJECT_NAME":"ONEWEB-0120","OBJECT_ID":"2020-100J","EPOCH":"2026-05-23T12:40:30.909792","MEAN_MOTION":13.12442096,"ECCENTRICITY":0.0001631,"INCLINATION":87.8951,"RA_OF_ASC_NODE":355.5765,"ARG_OF_PERICENTER":89.2124,"MEAN_ANOMALY":270.9192,"EPHEMERIS_TYPE":0,"CLASSIFICATION_TYPE":"U","NORAD_CAT_ID":47266,"ELEMENT_SET_NO":999,"REV_AT_EPOCH":26149,"BSTAR":-0.0010607,"MEAN_MOTION_DOT":-3.69e-06,"MEAN_MOTION_DDOT":0.0},{"OBJECT_NAME":"ONEWEB-0121","OBJECT_ID":"2020-100K","EPOCH":"2026-05-23T12:23:14.004384","MEAN_MOTION":13.12440286,"ECCENTRICITY":0.0002001,"INCLINATION":87.8961,"RA_OF_ASC_NODE":355.5624,"ARG_OF_PERICENTER":79.1849,"MEAN_ANOMALY":280.9504,"EPHEMERIS_TYPE":0,"CLASSIFICATION_TYPE":"U","NORAD_CAT_ID":47267,"ELEMENT_SET_NO":999,"REV_AT_EPOCH":26140,"BSTAR":0.00018390000000000002,"MEAN_MOTION_DOT":7.9e-07,"MEAN_MOTION_DDOT":0.0},{"OBJECT_NAME":"ONEWEB-0122","OBJECT_ID":"2020-100L","EPOCH":"2026-05-23T12:14:41.852832","MEAN_MOTION":13.1244062,"ECCENTRICITY":0.0001628,"INCLINATION":87.8963,"RA_OF_ASC_NODE":355.5677,"ARG_OF_PERICENTER":84.6209,"MEAN_ANOMALY":275.5105,"EPHEMERIS_TYPE":0,"CLASSIFICATION_TYPE":"U","NORAD_CAT_ID":47268,"ELEMENT_SET_NO":999,"REV_AT_EPOCH":26131,"BSTAR":0.0007466199999999999,"MEAN_MOTION_DOT":2.81e-06,"MEAN_MOTION_DDOT":0.0},{"OBJECT_NAME":"ONEWEB-0123","OBJECT_ID":"2020-100M","EPOCH":"2026-05-23T12:08:36.621024","MEAN_MOTION":13.1244124,"ECCENTRICITY":0.0001831,"INCLINATION":87.8951,"RA_OF_ASC_NODE":355.5787,"ARG_OF_PERICENTER":88.5277,"MEAN_ANOMALY":271.6061,"EPHEMERIS_TYPE":0,"CLASSIFICATION_TYPE":"U","NORAD_CAT_ID":47269,"ELEMENT_SET_NO":999,"REV_AT_EPOCH":26145,"BSTAR":0.00098634,"MEAN_MOTION_DOT":3.68e-06,"MEAN_MOTION_DDOT":0.0},{"OBJECT_NAME":"ONEWEB-0124","OBJECT_ID":"2020-100N","EPOCH":"2026-05-23T11:53:58.394400","MEAN_MOTION":13.12442591,"ECCENTRICITY":0.0001883,"INCLINATION":87.8948,"RA_OF_ASC_NODE":355.5841,"ARG_OF_PERICENTER":84.0585,"MEAN_ANOMALY":276.0758,"EPHEMERIS_TYPE":0,"CLASSIFICATION_TYPE":"U","NORAD_CAT_ID":47270,"ELEMENT_SET_NO":999,"REV_AT_EPOCH":26133,"BSTAR":0.00089645,"MEAN_MOTION_DOT":3.35e-06,"MEAN_MOTION_DDOT":0.0},{"OBJECT_NAME":"ONEWEB-0125","OBJECT_ID":"2020-100P","EPOCH":"2026-05-23T13:12:01.924992","MEAN_MOTION":13.12443754,"ECCENTRICITY":0.000212,"INCLINATION":87.8961,"RA_OF_ASC_NODE":355.5536,"ARG_OF_PERICENTER":86.7333,"MEAN_ANOMALY":273.4038,"EPHEMERIS_TYPE":0,"CLASSIFICATION_TYPE":"U","NORAD_CAT_ID":47271,"ELEMENT_SET_NO":999,"REV_AT_EPOCH":26140,"BSTAR":-0.00077924,"MEAN_MOTION_DOT":-2.68e-06,"MEAN_MOTION_DDOT":0.0},{"OBJECT_NAME":"ONEWEB-0126","OBJECT_ID":"2020-100Q","EPOCH":"2026-05-23T11:51:43.466976","MEAN_MOTION":13.12444137,"ECCENTRICITY":0.000173,"INCLINATION":87.8951,"RA_OF_ASC_NODE":355.5827,"ARG_OF_PERICENTER":86.118,"MEAN_ANOMALY":274.0146,"EPHEMERIS_TYPE":0,"CLASSIFICATION_TYPE":"U","NORAD_CAT_ID":47272,"ELEMENT_SET_NO":999,"REV_AT_EPOCH":26146,"BSTAR":0.00089786,"MEAN_MOTION_DOT":3.36e-06,"MEAN_MOTION_DDOT":0.0},{"OBJECT_NAME":"ONEWEB-0127","OBJECT_ID":"2020-100R","EPOCH":"2026-05-23T12:52:29.986752","MEAN_MOTION":13.12441817,"ECCENTRICITY":0.0001678,"INCLINATION":87.8951,"RA_OF_ASC_NODE":355.5739,"ARG_OF_PERICENTER":87.984,"MEAN_ANOMALY":272.1481,"EPHEMERIS_TYPE":0,"CLASSIFICATION_TYPE":"U","NORAD_CAT_ID":47273,"ELEMENT_SET_NO":999,"REV_AT_EPOCH":26149,"BSTAR":-0.0012399000000000002,"MEAN_MOTION_DOT":-4.33e-06,"MEAN_MOTION_DDOT":0.0},{"OBJECT_NAME":"ONEWEB-0128","OBJECT_ID":"2020-100S","EPOCH":"2026-05-23T11:34:25.250016","MEAN_MOTION":13.12443735,"ECCENTRICITY":0.0001758,"INCLINATION":87.8949,"RA_OF_ASC_NODE":355.5984,"ARG_OF_PERICENTER":75.5624,"MEAN_ANOMALY":284.57,"EPHEMERIS_TYPE":0,"CLASSIFICATION_TYPE":"U","NORAD_CAT_ID":47274,"ELEMENT_SET_NO":999,"REV_AT_EPOCH":26150,"BSTAR":-0.00068716,"MEAN_MOTION_DOT":-2.34e-06,"MEAN_MOTION_DDOT":0.0},{"OBJECT_NAME":"ONEWEB-0129","OBJECT_ID":"2020-100T","EPOCH":"2026-05-23T12:54:55.461888","MEAN_MOTION":13.12440946,"ECCENTRICITY":0.0001117,"INCLINATION":87.896,"RA_OF_ASC_NODE":355.5585,"ARG_OF_PERICENTER":123.8034,"MEAN_ANOMALY":236.3201,"EPHEMERIS_TYPE":0,"CLASSIFICATION_TYPE":"U","NORAD_CAT_ID":47275,"ELEMENT_SET_NO":999,"REV_AT_EPOCH":26144,"BSTAR":-0.0011539,"MEAN_MOTION_DOT":-4.02e-06,"MEAN_MOTION_DDOT":0.0},{"OBJECT_NAME":"ONEWEB-0130","OBJECT_ID":"2020-100U","EPOCH":"2026-05-23T11:44:12.274080","MEAN_MOTION":13.12442863,"ECCENTRICITY":0.0001699,"INCLINATION":87.8961,"RA_OF_ASC_NODE":355.5633,"ARG_OF_PERICENTER":85.039,"MEAN_ANOMALY":275.0932,"EPHEMERIS_TYPE":0,"CLASSIFICATION_TYPE":"U","NORAD_CAT_ID":47276,"ELEMENT_SET_NO":999,"REV_AT_EPOCH":26140,"BSTAR":0.00061986,"MEAN_MOTION_DOT":2.36e-06,"MEAN_MOTION_DDOT":0.0},{"OBJECT_NAME":"ONEWEB-0131","OBJECT_ID":"2020-100V","EPOCH":"2026-05-23T07:59:45.398112","MEAN_MOTION":13.12442958,"ECCENTRICITY":0.0001783,"INCLINATION":87.8949,"RA_OF_ASC_NODE":355.6152,"ARG_OF_PERICENTER":84.9746,"MEAN_ANOMALY":275.1586,"EPHEMERIS_TYPE":0,"CLASSIFICATION_TYPE":"U","NORAD_CAT_ID":47277,"ELEMENT_SET_NO":999,"REV_AT_EPOCH":26142,"BSTAR":0.00053135,"MEAN_MOTION_DOT":2.04e-06,"MEAN_MOTION_DDOT":0.0},{"OBJECT_NAME":"ONEWEB-0132","OBJECT_ID":"2020-100W","EPOCH":"2026-05-23T12:20:48.274368","MEAN_MOTION":13.12441048,"ECCENTRICITY":0.000179,"INCLINATION":87.8952,"RA_OF_ASC_NODE":355.5805,"ARG_OF_PERICENTER":83.5511,"MEAN_ANOMALY":276.5821,"EPHEMERIS_TYPE":0,"CLASSIFICATION_TYPE":"U","NORAD_CAT_ID":47278,"ELEMENT_SET_NO":999,"REV_AT_EPOCH":26134,"BSTAR":0.00052068,"MEAN_MOTION_DOT":2e-06,"MEAN_MOTION_DDOT":0.0},{"OBJECT_NAME":"ONEWEB-0133","OBJECT_ID":"2020-100X","EPOCH":"2026-05-23T12:44:59.542080","MEAN_MOTION":13.1244107,"ECCENTRICITY":0.0001753,"INCLINATION":87.8965,"RA_OF_ASC_NODE":355.55,"ARG_OF_PERICENTER":79.9779,"MEAN_ANOMALY":280.1547,"EPHEMERIS_TYPE":0,"CLASSIFICATION_TYPE":"U","NORAD_CAT_ID":47279,"ELEMENT_SET_NO":999,"REV_AT_EPOCH":26150,"BSTAR":-0.00093758,"MEAN_MOTION_DOT":-3.25e-06,"MEAN_MOTION_DDOT":0.0},{"OBJECT_NAME":"ONEWEB-0134","OBJECT_ID":"2020-100Y","EPOCH":"2026-05-23T12:01:17.289120","MEAN_MOTION":13.12442121,"ECCENTRICITY":0.0001512,"INCLINATION":87.8963,"RA_OF_ASC_NODE":355.5534,"ARG_OF_PERICENTER":81.5126,"MEAN_ANOMALY":278.6174,"EPHEMERIS_TYPE":0,"CLASSIFICATION_TYPE":"U","NORAD_CAT_ID":47280,"ELEMENT_SET_NO":999,"REV_AT_EPOCH":26147,"BSTAR":0.00099706,"MEAN_MOTION_DOT":3.71e-06,"MEAN_MOTION_DDOT":0.0},{"OBJECT_NAME":"ONEWEB-0135","OBJECT_ID":"2020-100Z","EPOCH":"2026-05-23T13:09:35.051904","MEAN_MOTION":13.12443066,"ECCENTRICITY":0.0001574,"INCLINATION":87.8952,"RA_OF_ASC_NODE":355.5701,"ARG_OF_PERICENTER":78.2061,"MEAN_ANOMALY":281.9244,"EPHEMERIS_TYPE":0,"CLASSIFICATION_TYPE":"U","NORAD_CAT_ID":47281,"ELEMENT_SET_NO":999,"REV_AT_EPOCH":26150,"BSTAR":-0.00079608,"MEAN_MOTION_DOT":-2.74e-06,"MEAN_MOTION_DDOT":0.0}]